<gpx xmlns="http://www.topografix.com/GPX/1/1" xmlns:xsi="http://www.w3.org/2001/XMLSchema-instance" xsi:schemaLocation="http://www.topografix.com/GPX/1/1 http://www.topografix.com/GPX/1/1/gpx.xsd" version="1.1" creator="OpenLayers"><rte><rtept lat="43.11070353260541" lon="27.923437570073734"/><rtept lat="43.110161764955336" lon="27.923227656441025"/><rtept lat="43.10943113149361" lon="27.923714504880348"/><rtept lat="43.109228031578596" lon="27.924133123973014"/><rtept lat="43.107344819339545" lon="27.923856687496745"/><rtept lat="43.10517659726116" lon="27.923400638223804"/><rtept lat="43.10409331623032" lon="27.923423822044107"/><rtept lat="43.102639455196766" lon="27.92342118222936"/><rtept lat="43.1015899914745" lon="27.923212533740156"/><rtept lat="43.10094675748371" lon="27.923301097714866"/><rtept lat="43.10070859269476" lon="27.923509746858915"/><rtept lat="43.100217697782085" lon="27.92344019736251"/><rtept lat="43.099202039815424" lon="27.922791064800407"/><rtept lat="43.09904968942823" lon="27.922698332793374"/><rtept lat="43.09850509866021" lon="27.922372968470203"/><rtept lat="43.09808189765292" lon="27.921538370584358"/><rtept lat="43.09787932693334" lon="27.92116743797238"/><rtept lat="43.0970329143" lon="27.92084287234616"/><rtept lat="43.09659277518347" lon="27.920703772698523"/><rtept lat="43.09596641728399" lon="27.920425573403243"/><rtept lat="43.095306195446085" lon="27.920332840086537"/><rtept lat="43.094186217217356" lon="27.920271838652248"/><rtept lat="43.09301809428899" lon="27.92015592217008"/><rtept lat="43.09205310593222" lon="27.920040005687902"/><rtept lat="43.09146056223264" lon="27.91990090604026"/><rtept lat="43.09104122277799" lon="27.91965532476472"/><rtept lat="43.090059272934695" lon="27.919446675620673"/><rtept lat="43.08928047447387" lon="27.919400308634902"/><rtept lat="43.08863206651148" lon="27.91921407778344"/><rtept lat="43.08814107454464" lon="27.91875041185475"/><rtept lat="43.08746316548849" lon="27.918495395724936"/><rtept lat="43.087073750752126" lon="27.918310406381742"/><rtept lat="43.086650470744985" lon="27.9177894981473"/><rtept lat="43.0862779825888" lon="27.917302171762923"/><rtept lat="43.08588856079618" lon="27.916954422971237"/><rtept lat="43.085084338863055" lon="27.91686012684975"/><rtept lat="43.08484729534297" lon="27.916952860166454"/><rtept lat="43.084801301574174" lon="27.916478938970528"/><rtept lat="43.08424259153" lon="27.916145159253926"/><rtept lat="43.081838212962055" lon="27.91582059362771"/><rtept lat="43.08031690225894" lon="27.915642677768307"/><rtept lat="43.078683465815516" lon="27.915587606699958"/><rtept lat="43.07770131774947" lon="27.91563397434057"/><rtept lat="43.07687122816594" lon="27.91512394208094"/><rtept lat="43.07564525863765" lon="27.914657349689335"/><rtept lat="43.07512029317479" lon="27.91384593496896"/><rtept lat="43.07444155090849" lon="27.913482052818257"/><rtept lat="43.070906154826105" lon="27.91313654379501"/><rtept lat="43.06869369936575" lon="27.91303642600466"/><rtept lat="43.06610240446952" lon="27.91296687650826"/><rtept lat="43.06302258514907" lon="27.91296942547974"/><rtept lat="43.06217903593924" lon="27.912593793797033"/><rtept lat="43.061128870542234" lon="27.911712828270584"/><rtept lat="43.05903108614763" lon="27.91045729553779"/><rtept lat="43.05745575820242" lon="27.909089481572014"/><rtept lat="43.05654102911416" lon="27.907976684390892"/><rtept lat="43.055982020277185" lon="27.907026170022878"/><rtept lat="43.05574803874413" lon="27.906573688371825"/><rtept lat="43.05566757450836" lon="27.90631287661436"/><rtept lat="43.0558369723548" lon="27.90583182347528"/><rtept lat="43.05587085193969" lon="27.905530441014527"/><rtept lat="43.05592920735336" lon="27.905042546965525"/><rtept lat="43.05586972176721" lon="27.904423763768683"/><rtept lat="43.05567914924393" lon="27.903757244569174"/><rtept lat="43.055650952763614" lon="27.903116993506742"/><rtept lat="43.0556890672614" lon="27.9021722803325"/><rtept lat="43.055567996262994" lon="27.90169469288779"/><rtept lat="43.05463629805078" lon="27.900836909871977"/><rtept lat="43.05346261655825" lon="27.899867193316346"/><rtept lat="43.050901012322186" lon="27.898882585557185"/><rtept lat="43.04920688435101" lon="27.898330522637004"/><rtept lat="43.047747589034486" lon="27.897764776491115"/><rtept lat="43.047259841291975" lon="27.89747217565751"/><rtept lat="43.04687154247529" lon="27.8968542182091"/><rtept lat="43.04653025795983" lon="27.89644047258057"/><rtept lat="43.046271795739784" lon="27.896063431165523"/><rtept lat="43.04609390028898" lon="27.895889556442263"/><rtept lat="43.046165705037595" lon="27.895598726011805"/><rtept lat="43.046033844053795" lon="27.895195585445755"/><rtept lat="43.04557216010423" lon="27.89444212896647"/><rtept lat="43.04589131978307" lon="27.89491225835173"/><rtept lat="43.046086158254354" lon="27.895271599217267"/><rtept lat="43.046179341641874" lon="27.895625143964025"/><rtept lat="43.04612427869654" lon="27.895874364466184"/><rtept lat="43.04648854015613" lon="27.89632081933542"/><rtept lat="43.047091082169004" lon="27.89714022029157"/><rtept lat="43.04727321035847" lon="27.897540131369265"/><rtept lat="43.04813753624762" lon="27.897883845001942"/><rtept lat="43.04874751805417" lon="27.89820841095557"/><rtept lat="43.04949243671663" lon="27.898325424956088"/><rtept lat="43.050000677900414" lon="27.89849350372427"/><rtept lat="43.05124423580796" lon="27.898983930926804"/><rtept lat="43.05256391030713" lon="27.89957161494739"/><rtept lat="43.053493934423244" lon="27.89998239745061"/><rtept lat="43.05464228037428" lon="27.900935259546657"/><rtept lat="43.05552918194903" lon="27.901786549367873"/><rtept lat="43.05565199582216" lon="27.90229658146379"/><rtept lat="43.055609229009406" lon="27.90336628845941"/><rtept lat="43.05574741683293" lon="27.904178088550886"/><rtept lat="43.05597696018597" lon="27.9050656415644"/><rtept lat="43.055878592687066" lon="27.90573168396131"/><rtept lat="43.05571975900901" lon="27.906354483923316"/><rtept lat="43.0562762055948" lon="27.907600488208665"/><rtept lat="43.05708767855947" lon="27.908725354032665"/><rtept lat="43.05780267620716" lon="27.909469816078808"/><rtept lat="43.05869372631696" lon="27.910085580971963"/><rtept lat="43.059074248401686" lon="27.910551949082173"/><rtept lat="43.0600567576042" lon="27.911102363462145"/><rtept lat="43.060906852792954" lon="27.91164369198016"/><rtept lat="43.061363384816815" lon="27.91197480753175"/><rtept lat="43.061957200290664" lon="27.91252192889436"/><rtept lat="43.06274382119483" lon="27.91294201931604"/><rtept lat="43.06408387329478" lon="27.9130185732529"/><rtept lat="43.06643252083791" lon="27.913023024830707"/><rtept lat="43.06763074748477" lon="27.91295185344808"/><rtept lat="43.06928125466692" lon="27.91301591255537"/><rtept lat="43.07137999045676" lon="27.913122723582433"/><rtept lat="43.07254724678231" lon="27.913372542533043"/><rtept lat="43.073733436373686" lon="27.913474239567705"/><rtept lat="43.07456574530255" lon="27.913472717935267"/><rtept lat="43.07507461298488" lon="27.913755537661668"/><rtept lat="43.07541753450715" lon="27.914224998890603"/><rtept lat="43.07572533030083" lon="27.91474744339814"/><rtept lat="43.0771052670606" lon="27.91518597953181"/><rtept lat="43.0778638695902" lon="27.91569069028477"/><rtept lat="43.08028339165688" lon="27.915588893152698"/><rtept lat="43.08147767914943" lon="27.91584762885858"/><rtept lat="43.082926284353704" lon="27.915928277102143"/><rtept lat="43.08454777524079" lon="27.916163178129935"/><rtept lat="43.08475942269533" lon="27.91669059792737"/><rtept lat="43.084962603604396" lon="27.917027176850816"/><rtept lat="43.085647657967314" lon="27.916864813563414"/><rtept lat="43.08614713386848" lon="27.91711403373815"/><rtept lat="43.08699777828508" lon="27.91829781355126"/><rtept lat="43.08752196552817" lon="27.918459667402242"/><rtept lat="43.08790785321068" lon="27.918720942128893"/><rtept lat="43.088663694533096" lon="27.91912944052736"/><rtept lat="43.08927875878254" lon="27.91952612841504"/><rtept lat="43.090392426202044" lon="27.919576710737555"/><rtept lat="43.091382414609654" lon="27.919782447411357"/><rtept lat="43.0919453323971" lon="27.920089625827178"/><rtept lat="43.09322980037186" lon="27.920244328070282"/><rtept lat="43.094555003507196" lon="27.920265479434978"/><rtept lat="43.0957299265003" lon="27.920452583812587"/><rtept lat="43.09657154847747" lon="27.920640769218025"/><rtept lat="43.0970032238356" lon="27.920889989392762"/><rtept lat="43.098105767022304" lon="27.9213263139236"/><rtept lat="43.09831313564516" lon="27.922073974775234"/><rtept lat="43.098732102739945" lon="27.922560823541968"/><rtept lat="43.099288830798855" lon="27.922729027268254"/><rtept lat="43.100444296870904" lon="27.923551556919577"/><rtept lat="43.1008971040215" lon="27.92349928069207"/><rtept lat="43.10161434478968" lon="27.92328737700471"/><rtept lat="43.10322997597771" lon="27.923475981099866"/><rtept lat="43.104508130027824" lon="27.923590406213805"/><rtept lat="43.10557101979552" lon="27.92358166950998"/><rtept lat="43.10736328734484" lon="27.923798595470153"/><rtept lat="43.109336717731225" lon="27.924106350581667"/><rtept lat="43.109446272731645" lon="27.92392576275589"/><rtept lat="43.11020789032602" lon="27.923166510157817"/><rtept lat="43.11051115668994" lon="27.923303101675696"/></rte></gpx>